ONEWEB-0228             
1 48780U 21045P   24089.90289648  .00000174  00000+0  42760-3 0  9991
2 48780  87.8989  60.2281 0001841  80.3109 279.8229 13.15549243137920
